[{"OBJECT_NAME":"ONEWEB-0683","OBJECT_ID":"2023-068K","EPOCH":"2025-09-15T20:50:59.323488","MEAN_MOTION":13.15549512,"ECCENTRICITY":0.0002162,"INCLINATION":87.9027,"RA_OF_ASC_NODE":313.9197,"ARG_OF_PERICENTER":101.5856,"MEAN_ANOMALY":258.5517,"EPHEMERIS_TYPE":0,"CLASSIFICATION_TYPE":"U","NORAD_CAT_ID":56719,"ELEMENT_SET_NO":999,"REV_AT_EPOCH":11335,"BSTAR":-0.00044603795,"MEAN_MOTION_DOT":-1.55e-6,"MEAN_MOTION_DDOT":0},{"OBJECT_NAME":"ONEWEB-0684","OBJECT_ID":"2023-068L","EPOCH":"2025-09-15T15:33:48.749760","MEAN_MOTION":13.15549736,"ECCENTRICITY":7.841e-5,"INCLINATION":87.9016,"RA_OF_ASC_NODE":313.9622,"ARG_OF_PERICENTER":140.9079,"MEAN_ANOMALY":219.2108,"EPHEMERIS_TYPE":0,"CLASSIFICATION_TYPE":"U","NORAD_CAT_ID":56720,"ELEMENT_SET_NO":999,"REV_AT_EPOCH":11315,"BSTAR":-0.00018260951,"MEAN_MOTION_DOT":-5.6e-7,"MEAN_MOTION_DDOT":0},{"OBJECT_NAME":"ONEWEB-0686","OBJECT_ID":"2023-068M","EPOCH":"2025-09-16T01:07:07.913568","MEAN_MOTION":13.16594636,"ECCENTRICITY":0.00019739,"INCLINATION":87.8969,"RA_OF_ASC_NODE":283.4373,"ARG_OF_PERICENTER":102.0693,"MEAN_ANOMALY":258.0659,"EPHEMERIS_TYPE":0,"CLASSIFICATION_TYPE":"U","NORAD_CAT_ID":56721,"ELEMENT_SET_NO":999,"REV_AT_EPOCH":11564,"BSTAR":-0.00033198641,"MEAN_MOTION_DOT":-1.14e-6,"MEAN_MOTION_DDOT":0},{"OBJECT_NAME":"ONEWEB-0694","OBJECT_ID":"2023-068N","EPOCH":"2025-09-16T02:08:42.741312","MEAN_MOTION":13.16593761,"ECCENTRICITY":0.00023104,"INCLINATION":87.899,"RA_OF_ASC_NODE":283.3587,"ARG_OF_PERICENTER":98.0074,"MEAN_ANOMALY":262.1319,"EPHEMERIS_TYPE":0,"CLASSIFICATION_TYPE":"U","NORAD_CAT_ID":56722,"ELEMENT_SET_NO":999,"REV_AT_EPOCH":11570,"BSTAR":2.5976051e-5,"MEAN_MOTION_DOT":2.3e-7,"MEAN_MOTION_DDOT":0},{"OBJECT_NAME":"ONEWEB-0696","OBJECT_ID":"2023-068P","EPOCH":"2025-09-16T03:18:51.971328","MEAN_MOTION":13.15549536,"ECCENTRICITY":0.00015778,"INCLINATION":87.9025,"RA_OF_ASC_NODE":313.9187,"ARG_OF_PERICENTER":95.4567,"MEAN_ANOMALY":264.6744,"EPHEMERIS_TYPE":0,"CLASSIFICATION_TYPE":"U","NORAD_CAT_ID":56723,"ELEMENT_SET_NO":999,"REV_AT_EPOCH":11333,"BSTAR":0.00037899509,"MEAN_MOTION_DOT":1.55e-6,"MEAN_MOTION_DDOT":0},{"OBJECT_NAME":"ONEWEB-0703","OBJECT_ID":"2023-068Q","EPOCH":"2025-09-16T01:43:01.923456","MEAN_MOTION":13.15549712,"ECCENTRICITY":0.00013065,"INCLINATION":87.902,"RA_OF_ASC_NODE":313.9161,"ARG_OF_PERICENTER":62.7167,"MEAN_ANOMALY":297.4096,"EPHEMERIS_TYPE":0,"CLASSIFICATION_TYPE":"U","NORAD_CAT_ID":56724,"ELEMENT_SET_NO":999,"REV_AT_EPOCH":11321,"BSTAR":0.00032487821,"MEAN_MOTION_DOT":1.35e-6,"MEAN_MOTION_DDOT":0},{"OBJECT_NAME":"ONEWEB-0721","OBJECT_ID":"2023-068R","EPOCH":"2025-09-16T02:24:05.069952","MEAN_MOTION":13.22444944,"ECCENTRICITY":0.00018367,"INCLINATION":86.6877,"RA_OF_ASC_NODE":172.8961,"ARG_OF_PERICENTER":73.9785,"MEAN_ANOMALY":286.1551,"EPHEMERIS_TYPE":0,"CLASSIFICATION_TYPE":"U","NORAD_CAT_ID":56725,"ELEMENT_SET_NO":999,"REV_AT_EPOCH":12171,"BSTAR":0.00021584862,"MEAN_MOTION_DOT":1.04e-6,"MEAN_MOTION_DDOT":0},{"OBJECT_NAME":"ONEWEB-0015","OBJECT_ID":"2024-188A","EPOCH":"2025-09-16T06:02:06.661536","MEAN_MOTION":13.11417993,"ECCENTRICITY":0.0002238,"INCLINATION":87.878,"RA_OF_ASC_NODE":75.6743,"ARG_OF_PERICENTER":80.2258,"MEAN_ANOMALY":279.9123,"EPHEMERIS_TYPE":0,"CLASSIFICATION_TYPE":"U","NORAD_CAT_ID":61594,"ELEMENT_SET_NO":999,"REV_AT_EPOCH":4855,"BSTAR":0.0016805903,"MEAN_MOTION_DOT":6.08e-6,"MEAN_MOTION_DDOT":0},{"OBJECT_NAME":"ONEWEB-0687","OBJECT_ID":"2024-188B","EPOCH":"2025-09-16T04:15:04.182336","MEAN_MOTION":13.17648057,"ECCENTRICITY":0.00023486,"INCLINATION":87.9039,"RA_OF_ASC_NODE":60.4118,"ARG_OF_PERICENTER":96.8608,"MEAN_ANOMALY":263.2791,"EPHEMERIS_TYPE":0,"CLASSIFICATION_TYPE":"U","NORAD_CAT_ID":61595,"ELEMENT_SET_NO":999,"REV_AT_EPOCH":4981,"BSTAR":-0.00075906962,"MEAN_MOTION_DOT":-2.82e-6,"MEAN_MOTION_DDOT":0},{"OBJECT_NAME":"ONEWEB-0688","OBJECT_ID":"2024-188C","EPOCH":"2025-09-16T04:56:23.470080","MEAN_MOTION":13.17646367,"ECCENTRICITY":0.00027095,"INCLINATION":87.9031,"RA_OF_ASC_NODE":60.406,"ARG_OF_PERICENTER":76.4455,"MEAN_ANOMALY":283.6978,"EPHEMERIS_TYPE":0,"CLASSIFICATION_TYPE":"U","NORAD_CAT_ID":61596,"ELEMENT_SET_NO":999,"REV_AT_EPOCH":4981,"BSTAR":-0.00011972196,"MEAN_MOTION_DOT":-3.4e-7,"MEAN_MOTION_DDOT":0},{"OBJECT_NAME":"ONEWEB-0689","OBJECT_ID":"2024-188D","EPOCH":"2025-09-16T05:01:02.814240","MEAN_MOTION":13.11415271,"ECCENTRICITY":0.00019468,"INCLINATION":87.8747,"RA_OF_ASC_NODE":75.6359,"ARG_OF_PERICENTER":97.8763,"MEAN_ANOMALY":262.2586,"EPHEMERIS_TYPE":0,"CLASSIFICATION_TYPE":"U","NORAD_CAT_ID":61597,"ELEMENT_SET_NO":999,"REV_AT_EPOCH":4854,"BSTAR":-0.0014167222,"MEAN_MOTION_DOT":-4.89e-6,"MEAN_MOTION_DDOT":0},{"OBJECT_NAME":"ONEWEB-0690","OBJECT_ID":"2024-188E","EPOCH":"2025-09-15T23:46:05.686176","MEAN_MOTION":13.11418892,"ECCENTRICITY":0.00011535,"INCLINATION":87.8792,"RA_OF_ASC_NODE":75.6623,"ARG_OF_PERICENTER":68.988,"MEAN_ANOMALY":291.1371,"EPHEMERIS_TYPE":0,"CLASSIFICATION_TYPE":"U","NORAD_CAT_ID":61598,"ELEMENT_SET_NO":999,"REV_AT_EPOCH":4869,"BSTAR":-0.0010953827,"MEAN_MOTION_DOT":-3.76e-6,"MEAN_MOTION_DDOT":0},{"OBJECT_NAME":"ONEWEB-0691","OBJECT_ID":"2024-188F","EPOCH":"2025-09-16T05:08:21.924960","MEAN_MOTION":13.11418286,"ECCENTRICITY":0.00020057,"INCLINATION":87.8714,"RA_OF_ASC_NODE":75.5711,"ARG_OF_PERICENTER":81.2013,"MEAN_ANOMALY":278.9342,"EPHEMERIS_TYPE":0,"CLASSIFICATION_TYPE":"U","NORAD_CAT_ID":61599,"ELEMENT_SET_NO":999,"REV_AT_EPOCH":4857,"BSTAR":-0.0015444046,"MEAN_MOTION_DOT":-5.35e-6,"MEAN_MOTION_DDOT":0},{"OBJECT_NAME":"ONEWEB-0692","OBJECT_ID":"2024-188G","EPOCH":"2025-09-16T05:37:42.736224","MEAN_MOTION":13.11421042,"ECCENTRICITY":0.00015839,"INCLINATION":87.8773,"RA_OF_ASC_NODE":75.6768,"ARG_OF_PERICENTER":123.401,"MEAN_ANOMALY":236.727,"EPHEMERIS_TYPE":0,"CLASSIFICATION_TYPE":"U","NORAD_CAT_ID":61600,"ELEMENT_SET_NO":999,"REV_AT_EPOCH":4856,"BSTAR":0.00062854808,"MEAN_MOTION_DOT":2.35e-6,"MEAN_MOTION_DDOT":0},{"OBJECT_NAME":"ONEWEB-0693","OBJECT_ID":"2024-188H","EPOCH":"2025-09-16T05:13:24.245472","MEAN_MOTION":13.17648063,"ECCENTRICITY":0.00014375,"INCLINATION":87.9041,"RA_OF_ASC_NODE":60.4221,"ARG_OF_PERICENTER":62.3789,"MEAN_ANOMALY":297.7489,"EPHEMERIS_TYPE":0,"CLASSIFICATION_TYPE":"U","NORAD_CAT_ID":61601,"ELEMENT_SET_NO":999,"REV_AT_EPOCH":4980,"BSTAR":0.00012524558,"MEAN_MOTION_DOT":6.2e-7,"MEAN_MOTION_DDOT":0},{"OBJECT_NAME":"ONEWEB-0695","OBJECT_ID":"2024-188J","EPOCH":"2025-09-16T05:03:29.085984","MEAN_MOTION":13.11416034,"ECCENTRICITY":0.00019159,"INCLINATION":87.8773,"RA_OF_ASC_NODE":75.6686,"ARG_OF_PERICENTER":107.3817,"MEAN_ANOMALY":252.752,"EPHEMERIS_TYPE":0,"CLASSIFICATION_TYPE":"U","NORAD_CAT_ID":61602,"ELEMENT_SET_NO":999,"REV_AT_EPOCH":4855,"BSTAR":-0.0014701076,"MEAN_MOTION_DOT":-5.08e-6,"MEAN_MOTION_DDOT":0},{"OBJECT_NAME":"ONEWEB-0697","OBJECT_ID":"2024-188K","EPOCH":"2025-09-16T05:49:54.113952","MEAN_MOTION":13.11418502,"ECCENTRICITY":0.0001511,"INCLINATION":87.8772,"RA_OF_ASC_NODE":75.6532,"ARG_OF_PERICENTER":119.6132,"MEAN_ANOMALY":240.5147,"EPHEMERIS_TYPE":0,"CLASSIFICATION_TYPE":"U","NORAD_CAT_ID":61603,"ELEMENT_SET_NO":999,"REV_AT_EPOCH":4854,"BSTAR":0.0010658381,"MEAN_MOTION_DOT":3.9e-6,"MEAN_MOTION_DDOT":0}]
