ONEWEB-0683             
1 56719U 23068K   25258.86874217 -.00000155  00000+0 -44604-3 0  9995
2 56719  87.9027 313.9197 0002162 101.5856 258.5517 13.15549512113355
ONEWEB-0684             
1 56720U 23068L   25258.64848090 -.00000056  00000+0 -18261-3 0  9993
2 56720  87.9016 313.9622 0000784 140.9079 219.2108 13.15549736113156
ONEWEB-0686             
1 56721U 23068M   25259.04661937 -.00000114  00000+0 -33199-3 0  9994
2 56721  87.8969 283.4373 0001973 102.0693 258.0659 13.16594636115647
ONEWEB-0694             
1 56722U 23068N   25259.08938358  .00000023  00000+0  25976-4 0  9995
2 56722  87.8990 283.3587 0002310  98.0074 262.1319 13.16593761115705
ONEWEB-0696             
1 56723U 23068P   25259.13810152  .00000155  00000+0  37900-3 0  9998
2 56723  87.9025 313.9187 0001577  95.4567 264.6744 13.15549536113330
ONEWEB-0703             
1 56724U 23068Q   25259.07155004  .00000135  00000+0  32488-3 0  9994
2 56724  87.9020 313.9161 0001306  62.7167 297.4096 13.15549712113218
ONEWEB-0721             
1 56725U 23068R   25259.10005868  .00000104  00000+0  21585-3 0  9993
2 56725  86.6877 172.8961 0001836  73.9785 286.1551 13.22444944121717
ONEWEB-0015             
1 61594U 24188A   25259.25146599  .00000608  00000+0  16806-2 0  9998
2 61594  87.8780  75.6743 0002238  80.2258 279.9123 13.11417993 48551
ONEWEB-0687             
1 61595U 24188B   25259.17713174 -.00000282  00000+0 -75907-3 0  9997
2 61595  87.9039  60.4118 0002348  96.8608 263.2791 13.17648057 49812
ONEWEB-0688             
1 61596U 24188C   25259.20582720 -.00000034  00000+0 -11972-3 0  9990
2 61596  87.9031  60.4060 0002709  76.4455 283.6978 13.17646367 49811
ONEWEB-0689             
1 61597U 24188D   25259.20906035 -.00000489  00000+0 -14167-2 0  9992
2 61597  87.8747  75.6359 0001946  97.8763 262.2586 13.11415271 48544
ONEWEB-0690             
1 61598U 24188E   25258.99034359 -.00000376  00000+0 -10954-2 0  9994
2 61598  87.8792  75.6623 0001153  68.9880 291.1371 13.11418892 48699
ONEWEB-0691             
1 61599U 24188F   25259.21414265 -.00000535  00000+0 -15444-2 0  9995
2 61599  87.8714  75.5711 0002005  81.2013 278.9342 13.11418286 48579
ONEWEB-0692             
1 61600U 24188G   25259.23452241  .00000235  00000+0  62855-3 0  9990
2 61600  87.8773  75.6768 0001583 123.4010 236.7270 13.11421042 48561
ONEWEB-0693             
1 61601U 24188H   25259.21764173  .00000062  00000+0  12525-3 0  9996
2 61601  87.9041  60.4221 0001437  62.3789 297.7489 13.17648063 49806
ONEWEB-0695             
1 61602U 24188J   25259.21075331 -.00000508  00000+0 -14701-2 0  9992
2 61602  87.8773  75.6686 0001915 107.3817 252.7520 13.11416034 48557
ONEWEB-0697             
1 61603U 24188K   25259.24298743  .00000390  00000+0  10658-2 0  9994
2 61603  87.8772  75.6532 0001511 119.6132 240.5147 13.11418502 48546
